STARLINK-32006          
1 60029U 24111P   26148.17879653  .00000125  00000+0  16346-4 0  9994
2 60029  53.1606  66.4065 0001308  78.5007 281.6141 15.30191866111204
STARLINK-32011          
1 60030U 24111Q   26148.19201187  .00000411  00000+0  23293-4 0  9996
2 60030  53.1598  65.0751 0001054  72.4262 287.6856 15.34395741111220
STARLINK-31878          
1 60031U 24111R   26148.05215785  .00004101  00000+0  13582-3 0  9990
2 60031  53.1618  15.0832 0000785  88.0408 272.0685 15.33578505111660
STARLINK-32017          
1 60032U 24111S   26148.18301659  .00001123  00000+0  50055-4 0  9999
2 60032  53.1609  66.4507 0001292  77.4065 282.7080 15.30194185111207
STARLINK-32005          
1 60034U 24111U   26148.04184883 -.00001995  00000+0 -55288-4 0  9996
2 60034  53.1611  66.9724 0001325  80.5007 279.6143 15.30177857111084
STARLINK-31981          
1 60035U 24111V   26148.06083034  .00000760  00000+0  37801-4 0  9993
2 60035  53.1609  67.0873 0001252  76.6323 283.4817 15.30187897111115
STARLINK-31985          
1 60036U 24111W   26148.18828824  .00000778  00000+0  38378-4 0  9990
2 60036  53.1609  66.4610 0001240  80.5291 279.5850 15.30198762111142
STARLINK-31918          
1 60037U 24111X   26148.15875642 -.00000396  00000+0 -12521-5 0  9999
2 60037  53.1603  66.2784 0001253  76.0498 284.0642 15.30185955111139
STARLINK-11129 [DTC]    
1 60038U 24112A   26148.25797034  .00001488  00000+0  17137-4 0  9998
2 60038  53.1586 234.3583 0001156  71.8670 288.2474 15.69713835113476
STARLINK-11140 [DTC]    
1 60039U 24112B   26147.68003419  .00002845  00000+0  28308-4 0  9992
2 60039  53.1595 237.1467 0001023  79.2701 280.8432 15.69727962113387
STARLINK-11122 [DTC]    
1 60040U 24112C   26148.24816234  .00005196  00000+0  47708-4 0  9991
2 60040  53.1580 234.2873 0000934  73.3381 286.7740 15.69715674113475
STARLINK-11149 [DTC]    
1 60041U 24112D   26148.24324992  .00002372  00000+0  24425-4 0  9991
2 60041  53.1601 234.2574 0001125  89.7714 270.3433 15.69718884113476
STARLINK-11120 [DTC]    
1 60042U 24112E   26148.23835274  .00008767  00000+0  77093-4 0  9994
2 60042  53.1577 234.2236 0001101  71.4850 288.6287 15.69726963113473
STARLINK-11086 [DTC]    
1 60043U 24112F   26147.72408055  .00001722  00000+0  19052-4 0  9996
2 60043  53.1598 236.7019 0000754 105.9746 254.1355 15.69723222113393
STARLINK-11148 [DTC]    
1 60044U 24112G   26148.22854176 -.00000826  00000+0 -19577-5 0  9991
2 60044  53.1580 234.1611 0001412  82.5124 277.6054 15.69704538113471
STARLINK-11116 [DTC]    
1 60045U 24112H   26148.22363307  .00004656  00000+0  43251-4 0  9991
2 60045  53.1587 234.1272 0001548  65.6863 294.4316 15.69721312113471
STARLINK-11155 [DTC]    
1 60046U 24112J   26148.21872476  .00003164  00000+0  30970-4 0  9990
2 60046  53.1603 234.0961 0001555  93.9375 266.1821 15.69711568113474
STARLINK-11163 [DTC]    
1 60047U 24112K   26147.70444865  .00010741  00000+0  93250-4 0  9990
2 60047  53.1593 236.5695 0001450 106.7211 253.3966 15.69748905113394
STARLINK-11135 [DTC]    
1 60048U 24112L   26148.26277750  .00001836  00000+0  20009-4 0  9997
2 60048  53.1597 233.6662 0001245  77.7872 282.3285 15.69713416113488
STARLINK-11151 [DTC]    
1 60049U 24112M   26148.20891490  .00001803  00000+0  19737-4 0  9995
2 60049  53.1599 234.0276 0001355 136.5961 223.5164 15.69711593113478
STARLINK-11137 [DTC]    
1 60050U 24112N   26147.69464861  .00002387  00000+0  24541-4 0  9994
2 60050  53.1596 236.5078 0001068  79.6300 280.4839 15.69724070113395
STARLINK-31811          
1 60051U 24112P   26148.04345378  .00001188  00000+0  50034-4 0  9990
2 60051  53.1633  69.5714 0001443  91.1821 268.9346 15.31703139110745
STARLINK-31775          
1 60052U 24112Q   26148.18044931 -.00001258  00000+0 -30370-4 0  9998
2 60052  53.1597  69.0066 0001328  75.3694 284.7455 15.30196247110768
STARLINK-31793          
1 60053U 24112R   26148.18678268  .00000884  00000+0  41983-4 0  9999
2 60053  53.1608  69.0479 0001222  82.9763 277.1376 15.30196512110767
STARLINK-31735          
1 60054U 24112S   26148.04349314 -.00000016  00000+0  11599-4 0  9990
2 60054  53.1609  69.5712 0001271  85.1223 274.9923 15.30188970110744
STARLINK-31788          
1 60055U 24112T   26148.10563991  .00000363  00000+0  24393-4 0  9997
2 60055  53.1619  69.2487 0001318  89.0747 271.0405 15.30192968110754
STARLINK-31825          
1 60056U 24112U   26148.17728710  .00000305  00000+0  22416-4 0  9997
2 60056  53.1611  68.9895 0001304  86.1401 273.9749 15.30192828110764
STARLINK-31437          
1 60057U 24112V   26148.05298921  .00000581  00000+0  31749-4 0  9996
2 60057  53.1607  69.6359 0001217  82.5137 277.6002 15.30193618110741
STARLINK-11181 [DTC]    
1 60059U 24113A   26148.30323558  .00003351  00000+0  32507-4 0  9993
2 60059  53.1594 158.8764 0001086 106.8194 253.2943 15.69710603112068
STARLINK-11176 [DTC]    
1 60060U 24113B   26148.29834416  .00000240  00000+0  68372-5 0  9997
2 60060  53.1579 158.8472 0000867  89.7244 270.3873 15.69698486112066
