OBJECT_NAME,OBJECT_ID,EPOCH,MEAN_MOTION,ECCENTRICITY,INCLINATION,RA_OF_ASC_NODE,ARG_OF_PERICENTER,MEAN_ANOMALY,EPHEMERIS_TYPE,CLASSIFICATION_TYPE,NORAD_CAT_ID,ELEMENT_SET_NO,REV_AT_EPOCH,BSTAR,MEAN_MOTION_DOT,MEAN_MOTION_DDOT
STARLINK-32006,2024-111P,2026-05-28T04:17:28.020192,15.30191866,.00013084,53.1606,66.4065,78.5007,281.6141,0,U,60029,999,11120,.16345533E-4,.125E-5,0
STARLINK-32011,2024-111Q,2026-05-28T04:36:29.825568,15.34395741,.00010547,53.1598,65.0751,72.4262,287.6856,0,U,60030,999,11122,.23292688E-4,.411E-5,0
STARLINK-31878,2024-111R,2026-05-28T01:15:06.438240,15.33578505,.00007858,53.1618,15.0832,88.0408,272.0685,0,U,60031,999,11166,.13582194E-3,.4101E-4,0
STARLINK-32017,2024-111S,2026-05-28T04:23:32.633376,15.30194185,.00012922,53.1609,66.4507,77.4065,282.7080,0,U,60032,999,11120,.50054623E-4,.1123E-4,0
STARLINK-32005,2024-111U,2026-05-28T01:00:15.738912,15.30177857,.00013255,53.1611,66.9724,80.5007,279.6143,0,U,60034,999,11108,-.55288058E-4,-.1995E-4,0
STARLINK-31981,2024-111V,2026-05-28T01:27:35.741376,15.30187897,.0001252,53.1609,67.0873,76.6323,283.4817,0,U,60035,999,11111,.37801183E-4,.76E-5,0
STARLINK-31985,2024-111W,2026-05-28T04:31:08.103936,15.30198762,.000124,53.1609,66.4610,80.5291,279.5850,0,U,60036,999,11114,.38377838E-4,.778E-5,0
STARLINK-31918,2024-111X,2026-05-28T03:48:36.554688,15.30185955,.00012537,53.1603,66.2784,76.0498,284.0642,0,U,60037,999,11113,-.1252062E-5,-.396E-5,0
STARLINK-11129 [DTC],2024-112A,2026-05-28T06:11:28.637376,15.69713835,.00011567,53.1586,234.3583,71.8670,288.2474,0,U,60038,999,11347,.17137036E-4,.1488E-4,0
STARLINK-11140 [DTC],2024-112B,2026-05-27T16:19:14.954016,15.69727962,.00010232,53.1595,237.1467,79.2701,280.8432,0,U,60039,999,11338,.28308439E-4,.2845E-4,0
STARLINK-11122 [DTC],2024-112C,2026-05-28T05:57:21.226176,15.69715674,.00009341,53.1580,234.2873,73.3381,286.7740,0,U,60040,999,11347,.47708356E-4,.5196E-4,0
STARLINK-11149 [DTC],2024-112D,2026-05-28T05:50:16.793088,15.69718884,.00011259,53.1601,234.2574,89.7714,270.3433,0,U,60041,999,11347,.24424914E-4,.2372E-4,0
STARLINK-11120 [DTC],2024-112E,2026-05-28T05:43:13.676736,15.69726963,.00011014,53.1577,234.2236,71.4850,288.6287,0,U,60042,999,11347,.77093329E-4,.8767E-4,0
STARLINK-11086 [DTC],2024-112F,2026-05-27T17:22:40.559520,15.69723222,.00007544,53.1598,236.7019,105.9746,254.1355,0,U,60043,999,11339,.19052129E-4,.1722E-4,0
STARLINK-11148 [DTC],2024-112G,2026-05-28T05:29:06.008064,15.69704538,.0001412,53.1580,234.1611,82.5124,277.6054,0,U,60044,999,11347,-.195767E-5,-.826E-5,0
STARLINK-11116 [DTC],2024-112H,2026-05-28T05:22:01.897248,15.69721312,.00015484,53.1587,234.1272,65.6863,294.4316,0,U,60045,999,11347,.43251485E-4,.4656E-4,0
STARLINK-11155 [DTC],2024-112J,2026-05-28T05:14:57.819264,15.69711568,.00015551,53.1603,234.0961,93.9375,266.1821,0,U,60046,999,11347,.30970431E-4,.3164E-4,0
STARLINK-11163 [DTC],2024-112K,2026-05-27T16:54:24.363360,15.69748905,.000145,53.1593,236.5695,106.7211,253.3966,0,U,60047,999,11339,.93250213E-4,.10741E-3,0
STARLINK-11135 [DTC],2024-112L,2026-05-28T06:18:23.976000,15.69713416,.0001245,53.1597,233.6662,77.7872,282.3285,0,U,60048,999,11348,.20009101E-4,.1836E-4,0
STARLINK-11151 [DTC],2024-112M,2026-05-28T05:00:50.247360,15.69711593,.00013554,53.1599,234.0276,136.5961,223.5164,0,U,60049,999,11347,.19736914E-4,.1803E-4,0
STARLINK-11137 [DTC],2024-112N,2026-05-27T16:40:17.639904,15.69724070,.00010684,53.1596,236.5078,79.6300,280.4839,0,U,60050,999,11339,.24541327E-4,.2387E-4,0
STARLINK-31811,2024-112P,2026-05-28T01:02:34.406592,15.31703139,.0001443,53.1633,69.5714,91.1821,268.9346,0,U,60051,999,11074,.50034244E-4,.1188E-4,0
STARLINK-31775,2024-112Q,2026-05-28T04:19:50.820384,15.30196247,.00013287,53.1597,69.0066,75.3694,284.7455,0,U,60052,999,11076,-.30370277E-4,-.1258E-4,0
STARLINK-31793,2024-112R,2026-05-28T04:28:58.023552,15.30196512,.00012221,53.1608,69.0479,82.9763,277.1376,0,U,60053,999,11076,.41983429E-4,.884E-5,0
STARLINK-31735,2024-112S,2026-05-28T01:02:37.807296,15.30188970,.00012718,53.1609,69.5712,85.1223,274.9923,0,U,60054,999,11074,.11599076E-4,-.16E-6,0
STARLINK-31788,2024-112T,2026-05-28T02:32:07.288224,15.30192968,.00013181,53.1619,69.2487,89.0747,271.0405,0,U,60055,999,11075,.24392618E-4,.363E-5,0
STARLINK-31825,2024-112U,2026-05-28T04:15:17.605440,15.30192828,.00013041,53.1611,68.9895,86.1401,273.9749,0,U,60056,999,11076,.22416036E-4,.305E-5,0
STARLINK-31437,2024-112V,2026-05-28T01:16:18.267744,15.30193618,.00012174,53.1607,69.6359,82.5137,277.6002,0,U,60057,999,11074,.31749364E-4,.581E-5,0
STARLINK-11181 [DTC],2024-113A,2026-05-28T07:16:39.554112,15.69710603,.00010865,53.1594,158.8764,106.8194,253.2943,0,U,60059,999,11206,.32506827E-4,.3351E-4,0
STARLINK-11176 [DTC],2024-113B,2026-05-28T07:09:36.935424,15.69698486,.00008677,53.1579,158.8472,89.7244,270.3873,0,U,60060,999,11206,.6837244E-5,.24E-5,0
